TIANMU-1 20             
1 58661U 23208B   26181.57647367  .00007436  00000+0  23597-3 0  9992
2 58661  97.4463 298.5956 0005574 274.6057  85.4548 15.32959747139477
TIANMU-1 21             
1 58662U 23208C   26181.54452160  .00009112  00000+0  26800-3 0  9998
2 58662  97.4522 301.3022 0005704 264.4343  95.6250 15.35307431139610
TIANMU-1 22             
1 58663U 23208D   26181.53541002  .00007199  00000+0  24119-3 0  9996
2 58663  97.4517 297.8297 0002231 300.4232  59.6788 15.31238744139373
TIANMU-1 15             
1 58700U 24004A   26181.46716236  .00005379  00000+0  20672-3 0  9996
2 58700  97.4663   7.6584 0005528 295.8697  64.1972 15.26842607137802
TIANMU-1 16             
1 58701U 24004B   26181.58869039  .00005219  00000+0  20045-3 0  9997
2 58701  97.4610   7.0044 0004618 315.2352  44.8513 15.26880675137829
TIANMU-1 17             
1 58702U 24004C   26181.57415444  .00005229  00000+0  20086-3 0  9990
2 58702  97.4637   7.4797 0004261 323.0148  37.0796 15.26879312137814
TIANMU-1 18             
1 58703U 24004D   26181.54944258  .00005052  00000+0  19466-3 0  9992
2 58703  97.4656   7.7163 0003476 298.9212  61.1678 15.26797908137812
INSAT-3DS               
1 58990U 24033A   26181.46020366 -.00000145  00000+0  00000+0 0  9997
2 58990   0.0682  97.8331 0001480 352.3482  76.0707  1.00269861 47203
METEOR-M2 4             
1 59051U 24039A   26181.54841416  .00000008  00000+0  23347-4 0  9999
2 59051  98.7017 140.6788 0007936 125.3828 234.8093 14.22430827121165
GOES 19                 
1 60133U 24119A   26181.50033400 -.00000238  00000+0  00000+0 0  9995
2 60133   0.0175 136.2159 0000518  12.1436 235.1399  1.00271911  7096
MTG-S1                  
1 64723U 25143A   26181.30129748  .00000003  00000+0  00000+0 0  9990
2 64723   0.5933 341.7147 0002784 266.1513 138.5111  1.00272386  3558
METOP-SGA1              
1 65159U 25172A   26181.17688079  .00000043  00000+0  40494-4 0  9998
2 65159  98.6640 240.6295 0007902  16.3379 343.8051 14.19817036 45638
FENGYUN 3H              
1 65815U 25219A   26181.42962864  .00000045  00000+0  41717-4 0  9995
2 65815  98.6769 121.9413 0001437  67.0860 293.0468 14.19922577 39264
