OBJECT_NAME,OBJECT_ID,EPOCH,MEAN_MOTION,ECCENTRICITY,INCLINATION,RA_OF_ASC_NODE,ARG_OF_PERICENTER,MEAN_ANOMALY,EPHEMERIS_TYPE,CLASSIFICATION_TYPE,NORAD_CAT_ID,ELEMENT_SET_NO,REV_AT_EPOCH,BSTAR,MEAN_MOTION_DOT,MEAN_MOTION_DDOT
TIANMU-1 20,2023-208B,2026-06-30T13:50:07.325088,15.32959747,.00055748,97.4463,298.5956,274.6057,85.4548,0,U,58661,999,13947,.23596755E-3,.7436E-4,0
TIANMU-1 21,2023-208C,2026-06-30T13:04:06.666240,15.35307431,.0005704,97.4522,301.3022,264.4343,95.6250,0,U,58662,999,13961,.26800491E-3,.9112E-4,0
TIANMU-1 22,2023-208D,2026-06-30T12:50:59.425728,15.31238744,.00022317,97.4517,297.8297,300.4232,59.6788,0,U,58663,999,13937,.24118711E-3,.7199E-4,0
TIANMU-1 15,2024-004A,2026-06-30T11:12:42.827904,15.26842607,.00055281,97.4663,7.6584,295.8697,64.1972,0,U,58700,999,13780,.20671941E-3,.5379E-4,0
TIANMU-1 16,2024-004B,2026-06-30T14:07:42.849696,15.26880675,.00046184,97.4610,7.0044,315.2352,44.8513,0,U,58701,999,13782,.20044852E-3,.5219E-4,0
TIANMU-1 17,2024-004C,2026-06-30T13:46:46.943616,15.26879312,.00042618,97.4637,7.4797,323.0148,37.0796,0,U,58702,999,13781,.20085989E-3,.5229E-4,0
TIANMU-1 18,2024-004D,2026-06-30T13:11:11.838912,15.26797908,.00034765,97.4656,7.7163,298.9212,61.1678,0,U,58703,999,13781,.19465575E-3,.5052E-4,0
INSAT-3DS,2024-033A,2026-06-30T11:02:41.596224,1.00269861,.00014804,0.0682,97.8331,352.3482,76.0707,0,U,58990,999,4720,0,-.145E-5,0
METEOR-M2 4,2024-039A,2026-06-30T13:09:42.983424,14.22430827,.00079364,98.7017,140.6788,125.3828,234.8093,0,U,59051,999,12116,.2334668E-4,.8E-7,0
GOES 19,2024-119A,2026-06-30T12:00:28.857600,1.00271911,.00005185,0.0175,136.2159,12.1436,235.1399,0,U,60133,999,709,0,-.238E-5,0
MTG-S1,2025-143A,2026-06-30T07:13:52.102272,1.00272386,.00027845,0.5933,341.7147,266.1513,138.5111,0,U,64723,999,355,0,.3E-7,0
METOP-SGA1,2025-172A,2026-06-30T04:14:42.500256,14.19817036,.0007902,98.6640,240.6295,16.3379,343.8051,0,U,65159,999,4563,.4049376E-4,.43E-6,0
FENGYUN 3H,2025-219A,2026-06-30T10:18:39.914496,14.19922577,.00014371,98.6769,121.9413,67.0860,293.0468,0,U,65815,999,3926,.41716741E-4,.45E-6,0
